[{"OBJECT_NAME":"STARLINK-36120","OBJECT_ID":"2025-293P","EPOCH":"2026-03-09T19:10:56.604000","MEAN_MOTION":14.98335584,"ECCENTRICITY":0.00034813,"INCLINATION":70.0009,"RA_OF_ASC_NODE":94.2038,"ARG_OF_PERICENTER":267.624,"MEAN_ANOMALY":92.4521,"EPHEMERIS_TYPE":0,"CLASSIFICATION_TYPE":"U","NORAD_CAT_ID":67016,"ELEMENT_SET_NO":999,"REV_AT_EPOCH":1490,"BSTAR":0.00033786536,"MEAN_MOTION_DOT":3.941e-5,"MEAN_MOTION_DDOT":0},{"OBJECT_NAME":"CZ-4C R\/B","OBJECT_ID":"2021-079B","EPOCH":"2026-03-09T14:04:29.438112","MEAN_MOTION":15.08928015,"ECCENTRICITY":0.0108377,"INCLINATION":98.3883,"RA_OF_ASC_NODE":282.6111,"ARG_OF_PERICENTER":26.1585,"MEAN_ANOMALY":334.506,"EPHEMERIS_TYPE":0,"CLASSIFICATION_TYPE":"U","NORAD_CAT_ID":49123,"ELEMENT_SET_NO":999,"REV_AT_EPOCH":24640,"BSTAR":0.00023549,"MEAN_MOTION_DOT":4.178e-5,"MEAN_MOTION_DDOT":0}]
